1 45388U 20019AE  22365.27801900  .00006742  00000-0  47098-3 0  9995
2 45388  53.0539 353.8732 0001859  68.5677 291.5510 15.06406894154228
1 45388U 20019AE  22365.34436580  .00006038  00000-0  42386-3 0  9994
2 45388  53.0528 353.5751 0001839  62.2336 297.8839 15.06406141154223
1 45388U 20019AE  22365.67609700  .00004291  00000-0  30669-3 0  9996
2 45388  53.0528 352.0858 0001825  62.2518 297.8656 15.06409900154270
1 45388U 20019AE  23001.14052506  .00001906  00000-0  14684-3 0  9991
2 45388  53.0535 350.0010 0001956  62.9953 297.1236 15.06405563154358
1 45388U 20019AE  23001.27322767  .00001070  00000-0  90733-4 0  9996
2 45388  53.0551 349.4060 0001673  59.9829 300.1326 15.06393648154363
1 45388U 20019AE  23001.27322767  .00001070  00000-0  90733-4 0  9996
2 45388  53.0551 349.4060 0001673  59.9829 300.1326 15.06393648154374
1 45388U 20019AE  23001.93669402 -.00004262  00000-0 -26741-3 0  9994
2 45388  53.0544 346.4251 0001676  62.1418 297.9740 15.06393474154468
1 45388U 20019AE  23002.33477073 -.00000757  00000-0 -31917-4 0  9997
2 45388  53.0526 344.6387 0001694  60.9887 299.1272 15.06401514154520
1 45388U 20019AE  23002.33477073 -.00000757  00000-0 -31917-4 0  9997
2 45388  53.0526 344.6387 0001694  60.9887 299.1272 15.06401514154531
1 45388U 20019AE  23002.93189352  .00001294  00000-0  10577-3 0  9996
2 45388  53.0535 341.9584 0001794  64.1044 296.0130 15.06400419154613
1 45388U 20019AE  23003.32997804  .00002954  00000-0  21716-3 0  9990
2 45388  53.0537 340.1714 0001774  62.9497 297.1672 15.06398118154678
1 45388U 20019AE  23003.32997804  .00002954  00000-0  21716-3 0  9990
2 45388  53.0537 340.1714 0001774  62.9497 297.1672 15.06398118154689
1 45388U 20019AE  23004.19249344  .00000366  00000-0  43490-4 0  9994
2 45388  53.0541 336.3001 0001760  63.7241 296.3929 15.06391173154816
1 45388U 20019AE  23004.32518638  .00000793  00000-0  72120-4 0  9990
2 45388  53.0550 335.7034 0001863  70.2893 289.8297 15.06395922154827
1 45388U 20019AE  23004.92229031  .00003447  00000-0  25013-3 0  9999
2 45388  53.0547 333.0241 0001740  62.4461 297.6704 15.06414464154915
1 45388U 20019AE  23004.92229031  .00003447  00000-0  25013-3 0  9999
2 45388  53.0547 333.0241 0001740  62.4461 297.6704 15.06414464154926
1 45388U 20019AE  23005.32037478  .00004947  00000-0  35064-3 0  9999
2 45388  53.0532 331.2363 0001736  63.8112 296.3056 15.06414698154978
1 45388U 20019AE  23005.32037478  .00004947  00000-0  35064-3 0  9999
2 45388  53.0532 331.2363 0001736  63.8112 296.3056 15.06414698154989
1 45388U 20019AE  23005.58575805  .00005553  00000-0  39123-3 0  9992
2 45388  53.0535 330.0443 0001721  65.0750 295.0417 15.06418287155014
1 45388U 20019AE  23006.31557983 -.00004017  00000-0 -25095-3 0  9990
2 45388  53.0536 326.7689 0001448  62.0455 298.0680 15.06392645155131
1 45388U 20019AE  23006.91270448 -.00002423  00000-0 -14386-3 0  9994
2 45388  53.0533 324.0877 0001462  61.3185 298.7951 15.06390688155218
1 45388U 20019AE  23007.24443683  .00004559  00000-0  32472-3 0  9990
2 45388  53.0535 322.5988 0001534  67.2556 292.8595 15.06402691155265
1 45388U 20019AE  23007.24443683  .00004559  00000-0  32472-3 0  9990
2 45388  53.0535 322.5988 0001534  67.2556 292.8595 15.06402691155276
1 45388U 20019AE  23007.90791403  .00000919  00000-0  80634-4 0  9999
2 45388  53.0528 319.6192 0001521  63.5975 296.5170 15.06385933155372
1 45388U 20019AE  23008.57138245  .00005760  00000-0  40526-3 0  9996
2 45388  53.0534 316.6415 0001746  69.0108 291.1068 15.06400901155473
1 45388U 20019AE  23008.83676960  .00008407  00000-0  58255-3 0  9995
2 45388  53.0527 315.4495 0001812  71.4865 288.6320 15.06405209155503
1 45388U 20019AE  23009.23485455  .00004159  00000-0  29797-3 0  9996
2 45388  53.0535 313.6630 0001625  69.5599 290.5564 15.06394454155575
1 45388U 20019AE  23009.56658652  .00005630  00000-0  39650-3 0  9997
2 45388  53.0536 312.1734 0001729  72.0206 288.0971 15.06402681155615
1 45388U 20019AE  23010.23005485  .00003087  00000-0  22603-3 0  9997
2 45388  53.0528 309.1954 0001561  77.8437 282.2727 15.06401323155717
1 45388U 20019AE  23011.09256581  .00002832  00000-0  20891-3 0  9991
2 45388  53.0532 305.3227 0001509  74.0262 286.0894 15.06400251155840
1 45388U 20019AE  23011.09256581  .00002832  00000-0  20891-3 0  9991
2 45388  53.0532 305.3227 0001509  74.0262 286.0894 15.06400251155851
1 45388U 20019AE  23011.82236774  .00007491  00000-0  52098-3 0  9994
2 45388  53.0521 302.0468 0001402  72.8367 287.2776 15.06421797155955
1 45388U 20019AE  23011.82236774  .00007491  00000-0  52098-3 0  9994
2 45388  53.0521 302.0468 0001402  72.8367 287.2776 15.06421797155966
1 45388U 20019AE  23012.81758124 -.00005948  00000-0 -38076-3 0  9999
2 45388  53.0526 297.5797 0003562  80.2583 279.8808 15.06385502156110
1 45388U 20019AE  23012.95027769 -.00017727  00000-0 -11756-2 0  9991
2 45388  53.0529 296.9838 0001343  98.5265 261.5876 15.06354605156120
1 45388U 20019AE  23013.01662670 -.00012754  00000-0 -83987-3 0  9996
2 45388  53.0541 296.6872 0001444 105.0566 255.0583 15.06355396156142
1 45388U 20019AE  23013.48106879  .00021133  00000-0  14346-2 0  9992
2 45388  53.0526 294.6016 0001247 110.6948 249.4174 15.06368931156209
1 45388U 20019AE  23013.48106879  .00021133  00000-0  14346-2 0  9992
2 45388  53.0526 294.6016 0001247 110.6948 249.4174 15.06368931156210
1 45388U 20019AE  23013.74646012  .00027894  00000-0  18848-2 0  9990
2 45388  53.0523 293.4097 0001185 109.8430 250.2687 15.06386547156245
1 45388U 20019AE  23014.21088331  .00043511  00000-0  29195-2 0  9998
2 45388  53.0518 291.3248 0001180 113.3539 246.7574 15.06431939156329
1 45388U 20019AE  23014.47627514  .00024722  00000-0  16719-2 0  9999
2 45388  53.0523 290.1332 0002059  88.1587 271.9638 15.06417988156367
1 45388U 20019AE  23015.13973716  .00031936  00000-0  21517-2 0  9998
2 45388  53.0516 287.1547 0001395  95.5747 264.5401 15.06426059156461
1 45388U 20019AE  23015.47147632  .00037524  00000-0  25242-2 0  9993
2 45388  53.0513 285.6650 0002245  79.8855 280.2387 15.06405909156500
1 45388U 20019AE  23015.47147632  .00037524  00000-0  25242-2 0  9993
2 45388  53.0513 285.6650 0002245  79.8855 280.2387 15.06405909156511
1 45388U 20019AE  23016.00224391  .00038923  00000-0  26152-2 0  9996
2 45388  53.0514 283.2818 0001356  90.2649 269.8495 15.06433204156581
1 45388U 20019AE  23016.00224391  .00038923  00000-0  26152-2 0  9996
2 45388  53.0514 283.2818 0001356  90.2649 269.8495 15.06433204156592
1 45388U 20019AE  23016.73206121  .00000306  00000-0  39466-4 0  9995
2 45388  53.0520 280.0060 0001341 106.9008 253.2128 15.06388169156691
1 45388U 20019AE  23016.73206121  .00000306  00000-0  39466-4 0  9995
2 45388  53.0520 280.0060 0001341 106.9008 253.2128 15.06388169156703
1 45388U 20019AE  23017.13015009  .00020299  00000-0  13782-2 0  9997
2 45388  53.0522 278.2185 0001632 109.8871 250.2294 15.06386603156752
1 45388U 20019AE  23017.99266467  .00009736  00000-0  67170-3 0  9991
2 45388  53.0520 274.3460 0001481 112.5136 247.6010 15.06395468156890
1 45388U 20019AE  23018.39074733  .00013622  00000-0  93141-3 0  9995
2 45388  53.0538 272.5589 0001768  69.7868 290.3311 15.06408395156943
1 45388U 20019AE  23018.92151560  .00008296  00000-0  57505-3 0  9993
2 45388  53.0525 270.1762 0001185 100.8068 259.3054 15.06408359157027
1 45388U 20019AE  23019.12055214  .00011471  00000-0  78726-3 0  9992
2 45388  53.0520 269.2825 0001136  97.8724 262.2394 15.06420535157065
1 45388U 20019AE  23019.38593981  .00007448  00000-0  51817-3 0  9999
2 45388  53.0512 268.0889 0000790  79.0421 281.0657 15.06411865157094
1 45388U 20019AE  23019.38593981  .00007448  00000-0  51817-3 0  9999
2 45388  53.0512 268.0889 0000790  79.0421 281.0657 15.06411865157106
1 45388U 20019AE  23020.04941639 -.00003044  00000-0 -18560-3 0  9999
2 45388  53.0533 265.1136 0001361  74.4237 285.6902 15.06387036157207
1 45388U 20019AE  23020.38115085  .00000962  00000-0  83490-4 0  9993
2 45388  53.0525 263.6247 0001127  91.1309 268.9809 15.06397443157247
1 45388U 20019AE  23020.91192278  .00006300  00000-0  44134-3 0  9994
2 45388  53.0515 261.2415 0001041  83.6903 276.4205 15.06407852157338
1 45388U 20019AE  23021.57539281  .00002992  00000-0  21965-3 0  9996
2 45388  53.0516 258.2658 0001254  83.5962 276.5170 15.06401559157435
1 45388U 20019AE  23023.03502330  .00000237  00000-0  34839-4 0  9999
2 45388  53.0512 251.7078 0001527 103.8625 256.2534 15.06396103157651
1 45388U 20019AE  23024.03022165  .00004232  00000-0  30276-3 0  9992
2 45388  53.0517 247.2396 0001413 113.3740 246.7398 15.06408497157806
1 45388U 20019AE  23024.82638773  .00001885  00000-0  14541-3 0  9995
2 45388  53.0511 243.6654 0001338 105.1652 254.9485 15.06398941157927
1 45388U 20019AE  23025.55620439 -.00000759  00000-0 -32059-4 0  9992
2 45388  53.0513 240.3885 0001367 117.0603 243.0525 15.06395138158020
1 45388U 20019AE  23025.82159051 -.00000415  00000-0 -89473-5 0  9991
2 45388  53.0513 239.1973 0001262 114.3151 245.7970 15.06397609158068
1 45388U 20019AE  23026.02063297  .00000529  00000-0  54393-4 0  9996
2 45388  53.0523 238.3052 0001154 105.6749 254.4367 15.06399717158096
1 45388U 20019AE  23026.02063297  .00000529  00000-0  54393-4 0  9996
2 45388  53.0523 238.3052 0001154 105.6749 254.4367 15.06399717158108
1 45388U 20019AE  23027.01583687  .00001220  00000-0  10077-3 0  9995
2 45388  53.0521 233.8373 0001153 102.5769 257.5349 15.06397844158247
1 45388U 20019AE  23027.81200147  .00000914  00000-0  80268-4 0  9999
2 45388  53.0518 230.2626 0001117 105.6332 254.4780 15.06396138158379
1 45388U 20019AE  23027.87834751  .00001026  00000-0  87785-4 0  9995
2 45388  53.0519 229.9648 0001120 104.9579 255.1534 15.06397188158379
1 45388U 20019AE  23028.54181739  .00000741  00000-0  68616-4 0  9996
2 45388  53.0525 226.9858 0001169 102.4143 257.6976 15.06396027158478
1 45388U 20019AE  23028.80720337  .00000844  00000-0  75567-4 0  9995
2 45388  53.0523 225.7946 0001169  95.6001 264.5122 15.06398276158510
1 45388U 20019AE  23028.93989617  .00000926  00000-0  81034-4 0  9994
2 45388  53.0522 225.1988 0001159  94.5711 265.5410 15.06399183158546
1 45388U 20019AE  23029.80240231  .00001086  00000-0  91786-4 0  9996
2 45388  53.0522 221.3271 0001169  93.1396 266.9727 15.06401495158663
1 45388U 20019AE  23030.53222067  .00000246  00000-0  35425-4 0  9990
2 45388  53.0520 218.0503 0001147  93.8686 266.2434 15.06397731158774
1 45388U 20019AE  23030.53222067  .00000246  00000-0  35425-4 0  9990
2 45388  53.0520 218.0503 0001147  93.8686 266.2434 15.06397731158785
1 45388U 20019AE  23030.93030036  .00000331  00000-0  41090-4 0  9997
2 45388  53.0520 216.2631 0001148  93.3909 266.7211 15.06398972158833
1 45388U 20019AE  23031.52742522 -.00000244  00000-0  25320-5 0  9996
2 45388  53.0510 213.5817 0001119  94.9055 265.2061 15.06395528158926
1 45388U 20019AE  23031.79281081  .00000039  00000-0  21539-4 0  9991
2 45388  53.0512 212.3904 0001138  94.6579 265.4540 15.06397698158970
1 45388U 20019AE  23031.92550529 -.00000099  00000-0  12221-4 0  9997
2 45388  53.0514 211.7950 0001114  93.2578 266.8538 15.06397014158989
